{
  "norad_id": 42847,
  "name": "CORVUS BC1",
  "history": [
    {
      "epoch": "2026-03-28T09:44:29.106816Z",
      "apogee_km": 556.9827615727918,
      "perigee_km": 540.212167691092,
      "latitude_deg": 7.958625337628594e-05,
      "longitude_deg": -79.22509025877754,
      "height_km": 543.439527949741,
      "semi_major_axis_km": 6926.734464631942,
      "eccentricity": 0.00121057,
      "inclination_deg": 97.4006,
      "raan_deg": 252.723,
      "arg_perigee_deg": 11.269,
      "mean_anomaly_deg": 348.8807,
      "mean_motion_rev_day": 15.0594792
    },
    {
      "epoch": "2026-03-29T04:52:39.277632Z",
      "apogee_km": 556.9091975038191,
      "perigee_km": 540.2283047139972,
      "latitude_deg": -6.61776177058782e-05,
      "longitude_deg": -6.28774406433794,
      "height_km": 543.3935038284475,
      "semi_major_axis_km": 6926.705751108908,
      "eccentricity": 0.0012041,
      "inclination_deg": 97.4007,
      "raan_deg": 253.4886,
      "arg_perigee_deg": 8.8167,
      "mean_anomaly_deg": 351.3269,
      "mean_motion_rev_day": 15.05957284
    },
    {
      "epoch": "2026-03-30T04:47:51.463680Z",
      "apogee_km": 556.8284462858728,
      "perigee_km": 540.2501392467657,
      "latitude_deg": -7.438717763687588e-05,
      "longitude_deg": -5.113879183505927,
      "height_km": 543.3590650469092,
      "semi_major_axis_km": 6926.676292766319,
      "eccentricity": 0.0011967,
      "inclination_deg": 97.4009,
      "raan_deg": 254.4456,
      "arg_perigee_deg": 5.7126,
      "mean_anomaly_deg": 354.4235,
      "mean_motion_rev_day": 15.05966891
    },
    {
      "epoch": "2026-03-30T04:47:51.464544Z",
      "apogee_km": 556.8286540861618,
      "perigee_km": 540.2499314464776,
      "latitude_deg": -7.472368978258632e-05,
      "longitude_deg": -5.1138827498893455,
      "height_km": 543.3588582332505,
      "semi_major_axis_km": 6926.676292766319,
      "eccentricity": 0.00119673,
      "inclination_deg": 97.4009,
      "raan_deg": 254.4456,
      "arg_perigee_deg": 5.7126,
      "mean_anomaly_deg": 354.4235,
      "mean_motion_rev_day": 15.05966891
    },
    {
      "epoch": "2026-03-30T09:34:53.822784Z",
      "apogee_km": 556.8179601553393,
      "perigee_km": 540.2467349416511,
      "latitude_deg": 1.64142613354692e-05,
      "longitude_deg": -76.87879171511258,
      "height_km": 543.3463089971467,
      "semi_major_axis_km": 6926.669347548495,
      "eccentricity": 0.00119619,
      "inclination_deg": 97.401,
      "raan_deg": 254.637,
      "arg_perigee_deg": 5.0046,
      "mean_anomaly_deg": 355.1299,
      "mean_motion_rev_day": 15.05969156
    },
    {
      "epoch": "2026-03-30T17:33:17.691264Z",
      "apogee_km": 556.7813323654573,
      "perigee_km": 540.259868656718,
      "latitude_deg": -7.202018052091368e-05,
      "longitude_deg": 163.5133164290765,
      "height_km": 543.3487906576165,
      "semi_major_axis_km": 6926.657600511087,
      "eccentricity": 0.0011926,
      "inclination_deg": 97.4011,
      "raan_deg": 254.956,
      "arg_perigee_deg": 4.0464,
      "mean_anomaly_deg": 356.0857,
      "mean_motion_rev_day": 15.05972987
    },
    {
      "epoch": "2026-03-30T22:20:19.989024Z",
      "apogee_km": 556.760847954878,
      "perigee_km": 540.2671066477278,
      "latitude_deg": -8.946147085579244e-05,
      "longitude_deg": 91.74867418058247,
      "height_km": 543.3504046135208,
      "semi_major_axis_km": 6926.650977301303,
      "eccentricity": 0.0011906,
      "inclination_deg": 97.4013,
      "raan_deg": 255.1474,
      "arg_perigee_deg": 3.4286,
      "mean_anomaly_deg": 356.702,
      "mean_motion_rev_day": 15.05975147
    },
    {
      "epoch": "2026-04-01T17:23:39.746112Z",
      "apogee_km": 556.6007230806817,
      "perigee_km": 540.3370524562006,
      "latitude_deg": 2.3779685965866212e-05,
      "longitude_deg": 165.87071466427503,
      "height_km": 543.4128725671846,
      "semi_major_axis_km": 6926.605887768441,
      "eccentricity": 0.001174,
      "inclination_deg": 97.4017,
      "raan_deg": 256.87,
      "arg_perigee_deg": 357.8833,
      "mean_anomaly_deg": 2.2343,
      "mean_motion_rev_day": 15.05989852
    },
    {
      "epoch": "2026-04-02T17:18:49.957056Z",
      "apogee_km": 556.4964055040218,
      "perigee_km": 540.378267023535,
      "latitude_deg": -5.02707637784867e-05,
      "longitude_deg": 167.05294039078368,
      "height_km": 543.4827056426416,
      "semi_major_axis_km": 6926.574336263778,
      "eccentricity": 0.0011635,
      "inclination_deg": 97.4022,
      "raan_deg": 257.8271,
      "arg_perigee_deg": 354.7913,
      "mean_anomaly_deg": 5.3191,
      "mean_motion_rev_day": 15.06000142
    }
  ]
}